NORAD_CAT_ID,OBJECT_NAME,OBJECT_TYPE,EPOCH,MEAN_MOTION,ECCENTRICITY,INCLINATION,RA_OF_ASC_NODE,ARG_OF_PERICENTER,MEAN_ANOMALY,BSTAR,MEAN_MOTION_DOT,MEAN_MOTION_DDOT,TLE_LINE0,TLE_LINE1,TLE_LINE2,SEMIMAJOR_AXIS,PERIOD,APOGEE,PERIGEE,DECAYED
54070.0,STARLINK-5181,PAYLOAD,2023-09-16 18:04:51,15.08833368,0.0001297,53.2172,86.2304,93.6439,266.4702,0.00014386,2.002e-05,0.0,0 STARLINK-5181,1 54070U 22136V   23259.75337616  .00002002  00000-0  14386-3 0  9998,2 54070  53.2172  86.2304 0001297  93.6439 266.4702 15.08833368 50719,6917.901,95.438,540.663,538.868,0.0
54070.0,STARLINK-5181,PAYLOAD,2023-09-16 22:51:00,15.08841383,0.0001294,53.2163,85.3377,89.846,270.268,0.00020267,2.939e-05,0.0,0 STARLINK-5181,1 54070U 22136V   23259.95209253  .00002939  00000-0  20267-3 0  9999,2 54070  53.2163  85.3377 0001294  89.8460 270.2680 15.08841383 50744,6917.876,95.437,540.636,538.846,0.0
54070.0,STARLINK-5181,PAYLOAD,2023-09-17 13:09:28,15.0884533,0.0001287,53.2166,82.6613,89.6154,270.4985,0.00011025,1.467e-05,0.0,0 STARLINK-5181,1 54070U 22136V   23260.54825086  .00001467  00000-0  11025-3 0  9991,2 54070  53.2166  82.6613 0001287  89.6154 270.4985 15.08845330 50353,6917.864,95.437,540.619,538.839,0.0
54070.0,STARLINK-5181,PAYLOAD,2023-09-18 05:03:20,15.08845747,0.0001254,53.2161,79.6871,85.7648,274.3488,0.00015263,2.142e-05,0.0,0 STARLINK-5181,1 54070U 22136V   23261.21064917  .00002142  00000-0  15263-3 0  9993,2 54070  53.2161  79.6871 0001254  85.7648 274.3488 15.08845747 50936,6917.863,95.437,540.595,538.86,0.0
54070.0,STARLINK-5181,PAYLOAD,2023-09-18 11:24:52,15.08841492,0.0001453,53.2173,78.4993,86.2087,273.9071,0.00013113,1.8e-05,0.0,0 STARLINK-5181,1 54070U 22136V   23261.47561165  .00001800  00000-0  13113-3 0  9990,2 54070  53.2173  78.4993 0001453  86.2087 273.9071 15.08841492 50492,6917.876,95.437,540.746,538.736,0.0
54070.0,STARLINK-5181,PAYLOAD,2023-09-18 16:11:02,15.0883794,0.0001391,53.2172,77.6071,87.0883,273.0269,4.5207e-05,4.32e-06,0.0,0 STARLINK-5181,1 54070U 22136V   23261.67433304  .00000432  00000-0  45207-4 0  9995,2 54070  53.2172  77.6071 0001391  87.0883 273.0269 15.08837940 51004,6917.887,95.438,540.714,538.789,0.0
54070.0,STARLINK-5181,PAYLOAD,2023-09-18 19:21:48,15.08843003,0.0001404,53.2174,77.0122,85.0587,275.0565,0.00013165,1.808e-05,0.0,0 STARLINK-5181,1 54070U 22136V   23261.80681223  .00001808  00000-0  13165-3 0  9990,2 54070  53.2174  77.0122 0001404  85.0587 275.0565 15.08843003 50547,6917.871,95.437,540.707,538.765,0.0
54070.0,STARLINK-5181,PAYLOAD,2023-09-19 17:37:12,15.08847255,0.0001214,53.2158,72.8495,78.5809,281.532,0.00020163,2.923e-05,0.0,0 STARLINK-5181,1 54070U 22136V   23262.73416818  .00002923  00000-0  20163-3 0  9994,2 54070  53.2158  72.8495 0001214  78.5809 281.5320 15.08847255 51161,6917.858,95.437,540.563,538.883,0.0
54070.0,STARLINK-5181,PAYLOAD,2023-09-20 11:06:27,15.08834064,0.0001565,53.217,69.5784,84.2976,275.8195,2.7452e-05,1.49e-06,0.0,0 STARLINK-5181,1 54070U 22136V   23263.46281674  .00000149  00000-0  27452-4 0  9992,2 54070  53.2170  69.5784 0001565  84.2976 275.8195 15.08834064 51279,6917.899,95.438,540.846,538.681,0.0
54070.0,STARLINK-5181,PAYLOAD,2023-09-20 17:28:00,15.08831399,0.0001588,53.2177,68.3885,82.9589,277.1584,1.3399e-06,-2.67e-06,0.0,0 STARLINK-5181,1 54070U 22136V   23263.72778009 -.00000267  00000-0  13399-5 0  9992,2 54070  53.2177  68.3885 0001588  82.9589 277.1584 15.08831399 50831,6917.907,95.438,540.87,538.673,0.0
54070.0,STARLINK-5181,PAYLOAD,2023-09-21 10:57:14,15.08840869,0.00015,53.2186,65.1171,82.2514,277.8648,0.00023873,3.514e-05,0.0,0 STARLINK-5181,1 54070U 22136V   23264.45642031  .00003514  00000-0  23873-3 0  9991,2 54070  53.2186  65.1171 0001500  82.2514 277.8648 15.08840869 50941,6917.878,95.437,540.78,538.705,0.0
54070.0,STARLINK-5181,PAYLOAD,2023-09-21 17:18:47,15.08848315,0.0001471,53.2187,63.9273,80.3376,279.7783,0.00046543,7.129e-05,0.0,0 STARLINK-5181,1 54070U 22136V   23264.72137864  .00007129  00000-0  46543-3 0  9999,2 54070  53.2187  63.9273 0001471  80.3376 279.7783 15.08848315 51466,6917.855,95.437,540.738,538.702,0.0
54070.0,STARLINK-5181,PAYLOAD,2023-09-22 10:48:01,15.0884575,0.0001485,53.2176,60.6568,75.6992,284.4165,0.00027232,4.049e-05,0.0,0 STARLINK-5181,1 54070U 22136V   23265.45001894  .00004049  00000-0  27232-3 0  9995,2 54070  53.2176  60.6568 0001485  75.6992 284.4165 15.08845750 51570,6917.863,95.437,540.755,538.701,0.0
54070.0,STARLINK-5181,PAYLOAD,2023-09-22 13:58:47,15.08845094,0.0001432,53.2174,60.0618,74.8776,285.2374,0.00026009,3.854e-05,0.0,0 STARLINK-5181,1 54070U 22136V   23265.58249872  .00003854  00000-0  26009-3 0  9993,2 54070  53.2174  60.0618 0001432  74.8776 285.2374 15.08845094 51113,6917.865,95.437,540.72,538.739,0.0
54070.0,STARLINK-5181,PAYLOAD,2023-09-22 17:09:34,15.08845044,0.000145,53.2178,59.4671,76.6794,283.4359,0.00026668,3.959e-05,0.0,0 STARLINK-5181,1 54070U 22136V   23265.71497797  .00003959  00000-0  26668-3 0  9996,2 54070  53.2178  59.4671 0001450  76.6794 283.4359 15.08845044 51138,6917.865,95.437,540.733,538.727,0.0
54070.0,STARLINK-5181,PAYLOAD,2023-09-23 13:49:34,15.08843708,0.0001383,53.2179,55.6013,85.6835,274.4315,-2.3695e-05,-6.65e-06,0.0,0 STARLINK-5181,1 54070U 22136V   23266.57609567 -.00000665  00000-0 -23695-4 0  9992,2 54070  53.2179  55.6013 0001383  85.6835 274.4315 15.08843708 51269,6917.869,95.437,540.691,538.777,0.0
54070.0,STARLINK-5181,PAYLOAD,2023-09-23 17:00:20,15.08846773,0.000135,53.2184,55.0096,84.6756,275.4391,5.5445e-05,5.95e-06,0.0,0 STARLINK-5181,1 54070U 22136V   23266.70857435  .00000595  00000-0  55445-4 0  9994,2 54070  53.2184  55.0096 0001350  84.6756 275.4391 15.08846773 51760,6917.86,95.437,540.659,538.791,0.0
54070.0,STARLINK-5181,PAYLOAD,2023-09-24 08:54:12,15.08840693,0.0001352,53.2185,52.0375,87.5435,272.5712,3.3123e-05,2.39e-06,0.0,0 STARLINK-5181,1 54070U 22136V   23267.37097563  .00000239  00000-0  33123-4 0  9990,2 54070  53.2185  52.0375 0001352  87.5435 272.5712 15.08840693 51867,6917.878,95.438,540.679,538.808,0.0
54070.0,STARLINK-5181,PAYLOAD,2023-09-24 13:40:21,15.08836303,0.0001393,53.2181,51.1432,86.5444,273.5707,-4.9103e-05,-1.069e-05,0.0,0 STARLINK-5181,1 54070U 22136V   23267.56969868 -.00001069  00000-0 -49103-4 0  9996,2 54070  53.2181  51.1432 0001393  86.5444 273.5707 15.08836303 51410,6917.892,95.438,540.72,538.793,0.0
54070.0,STARLINK-5181,PAYLOAD,2023-09-24 15:15:45,15.08841095,0.0001289,53.2188,50.845,81.8167,278.2972,3.2594e-05,2.31e-06,0.0,0 STARLINK-5181,1 54070U 22136V   23267.63593894  .00000231  00000-0  32594-4 0  9990,2 54070  53.2188  50.8450 0001289  81.8167 278.2972 15.08841095 51428,6917.877,95.437,540.634,538.85,0.0
54070.0,STARLINK-5181,PAYLOAD,2023-09-25 13:31:09,15.0883883,0.0001459,53.2189,46.6824,90.7652,269.3507,-2.1954e-05,-6.37e-06,0.0,0 STARLINK-5181,1 54070U 22136V   23268.56329873 -.00000637  00000-0 -21954-4 0  9997,2 54070  53.2189  46.6824 0001459  90.7652 269.3507 15.08838830 51567,6917.884,95.438,540.758,538.74,0.0
54070.0,STARLINK-5181,PAYLOAD,2023-09-25 19:52:40,15.08851892,0.0001281,53.2174,45.4892,79.4472,280.6664,0.00017498,2.499e-05,0.0,0 STARLINK-5181,1 54070U 22136V   23268.82825054  .00002499  00000-0  17498-3 0  9991,2 54070  53.2174  45.4892 0001281  79.4472 280.6664 15.08851892 52081,6917.844,95.437,540.595,538.823,0.0
54070.0,STARLINK-5181,PAYLOAD,2023-09-26 08:35:47,15.0881695,0.0001134,53.2187,43.1138,67.1745,292.9367,-0.00024585,-4.196e-05,0.0,0 STARLINK-5181,1 54070U 22136V   23269.35819181 -.00004196  00000-0 -24585-3 0  9997,2 54070  53.2187  43.1138 0001134  67.1745 292.9367 15.08816950 52168,6917.951,95.439,540.6,539.031,0.0
54070.0,STARLINK-5181,PAYLOAD,2023-09-26 14:57:19,15.08838372,0.0001379,53.2176,41.9207,93.4735,266.6415,3.3348e-05,2.43e-06,0.0,0 STARLINK-5181,1 54070U 22136V   23269.62314254  .00000243  00000-0  33348-4 0  9993,2 54070  53.2176  41.9207 0001379  93.4735 266.6415 15.08838372 51726,6917.885,95.438,540.704,538.796,0.0
54070.0,STARLINK-5181,PAYLOAD,2023-09-26 18:08:05,15.08843008,0.0001297,53.2174,41.325,89.6464,270.4676,9.2973e-05,1.192e-05,0.0,0 STARLINK-5181,1 54070U 22136V   23269.75562039  .00001192  00000-0  92973-4 0  9996,2 54070  53.2174  41.3250 0001297  89.6464 270.4676 15.08843008 52221,6917.871,95.437,540.633,538.839,0.0
54070.0,STARLINK-5181,PAYLOAD,2023-09-27 08:26:34,15.08831768,0.000126,53.2177,38.6492,91.547,268.5666,0.00017602,2.514e-05,0.0,0 STARLINK-5181,1 54070U 22136V   23270.35178834  .00002514  00000-0  17602-3 0  9994,2 54070  53.2177  38.6492 0001260  91.5470 268.5666 15.08831768 52317,6917.906,95.438,540.642,538.899,0.0
54070.0,STARLINK-5181,PAYLOAD,2023-09-27 13:12:43,15.08841223,0.0001472,53.2175,37.7604,84.3198,275.7962,0.00014215,1.975e-05,0.0,0 STARLINK-5181,1 54070U 22136V   23270.55050381  .00001975  00000-0  14215-3 0  9999,2 54070  53.2175  37.7604 0001472  84.3198 275.7962 15.08841223 51867,6917.877,95.437,540.76,538.723,0.0
54070.0,STARLINK-5181,PAYLOAD,2023-09-27 16:23:29,15.08848726,0.0001517,53.2175,37.1644,82.0758,278.0406,0.00017531,2.504e-05,0.0,0 STARLINK-5181,1 54070U 22136V   23270.68297973  .00002504  00000-0  17531-3 0  9996,2 54070  53.2175  37.1644 0001517  82.0758 278.0406 15.08848726 52362,6917.854,95.437,540.768,538.669,0.0
54070.0,STARLINK-5181,PAYLOAD,2023-09-28 13:03:30,15.08839743,0.0001519,53.2176,33.2993,91.7009,268.4157,0.00011368,1.522e-05,0.0,0 STARLINK-5181,1 54070U 22136V   23271.54410554  .00001522  00000-0  11368-3 0  9995,2 54070  53.2176  33.2993 0001519  91.7009 268.4157 15.08839743 52494,6917.881,95.438,540.797,538.695,0.0
54070.0,STARLINK-5181,PAYLOAD,2023-09-28 14:38:53,15.08840159,0.0001397,53.2184,33.0033,89.7996,270.3156,0.0001403,1.946e-05,0.0,0 STARLINK-5181,1 54070U 22136V   23271.61034439  .00001946  00000-0  14030-3 0  9996,2 54070  53.2184  33.0033 0001397  89.7996 270.3156 15.08840159 52025,6917.88,95.438,540.711,538.778,0.0
